SKYSAT-C1               
1 41601U 16040C   26170.56114831  .00007375  00000+0  21024-3 0  9991
2 41601  96.9557 202.1525 0003270  53.7576 306.3971 15.36334265558237
LAPAN-A3                
1 41603U 16040E   26170.60611758  .00002671  00000+0  85709-4 0  9993
2 41603  97.1490 166.6723 0010584  17.6604 342.5005 15.33117376555189
GAOFEN-3                
1 41727U 16049A   26170.58158521 -.00000054  00000+0 -32025-5 0  9999
2 41727  98.4008 178.3317 0001432  98.8062 261.3290 14.42215501518995
SKYSAT-C4               
1 41771U 16058B   26170.33525208  .00014681  00000+0  27618-3 0  9990
2 41771  96.9169 192.0176 0001529 136.5061 223.6312 15.48643082545809
SKYSAT-C5               
1 41772U 16058C   26170.06026425  .00005867  00000+0  17786-3 0  9999
2 41772  97.0465 210.6172 0000915 297.2547  62.8603 15.34491747544030
SKYSAT-C2               
1 41773U 16058D   26170.33583932  .00010427  00000+0  24547-3 0  9992
2 41773  97.0165 192.3500 0004539  66.0921 294.0802 15.42111954545380
SKYSAT-C3               
1 41774U 16058E   26170.33473394  .00019823  00000+0  32344-3 0  9996
2 41774  96.9000 201.0984 0001427  99.3828 260.7587 15.52618328546445
ALSAT-1B                
1 41785U 16059C   26170.61889755  .00000259  00000+0  48427-4 0  9995
2 41785  97.7746 179.2778 0008262 211.1902 148.8816 14.72276510520932
PATHFINDER 1            
1 41787U 16059E   26170.31818894  .00000428  00000+0  82953-4 0  9990
2 41787  97.8166 169.4983 0027969 196.6422 163.3869 14.67665187520025
SCATSAT 1               
1 41790U 16059H   26170.44506418  .00000841  00000+0  11738-3 0  9995
2 41790  98.1190 234.2345 0053465 240.0397 119.5500 14.79529561101925
GOKTURK 1A              
1 41875U 16073A   26170.63987662  .00000197  00000+0  47720-4 0  9995
2 41875  98.1246  65.2757 0001417  77.0275 283.1085 14.62775922509185
RESOURCESAT-2A          
1 41877U 16074A   26170.60455231  .00000636  00000+0  30998-3 0  9993
2 41877  98.7524 244.0896 0003303  79.9956 280.1594 14.21619178494647
CARTOSAT-2D             
1 41948U 17008A   26170.59545061  .00003259  00000+0  15798-3 0  9994
2 41948  97.4099 229.8574 0003946 223.7666 136.3257 15.19220865517949
SENTINEL-2B             
1 42063U 17013A   26170.58511388  .00000368  00000+0  15697-3 0  9999
2 42063  98.5689 245.3262 0001190  86.8124 273.3195 14.30818744484989
CARTOSAT-2E             
1 42767U 17036C   26170.61322637  .00003751  00000+0  18107-3 0  9994
2 42767  97.4271 230.3763 0002207 309.0902  51.0136 15.19271631498515
FORMOSAT-5              
1 42920U 17049A   26170.53558182  .00000098  00000+0  35800-4 0  9997
2 42920  98.2254 245.7932 0012648  77.8673 282.3938 14.50899544467012
SENTINEL-5P             
1 42969U 17064A   26170.31646089  .00000036  00000+0  37927-4 0  9991
2 42969  98.7925 112.4326 0000995  87.2037 272.9253 14.19519265449865
SKYSAT-C11              
1 42987U 17068A   26170.36956258  .00025137  00000+0  33662-3 0  9992
2 42987  97.4361 319.2953 0000540  92.5632 267.5686 15.57990607483587
SKYSAT-C10              
1 42988U 17068B   26170.37886370  .00007671  00000+0  23072-3 0  9998
2 42988  97.4514 307.2471 0001100  99.7676 260.3691 15.34669131482698
SKYSAT-C9               
1 42989U 17068C   26170.38100996  .00011508  00000+0  27511-3 0  9999
2 42989  97.4434 308.2050 0009456 126.1658 234.0465 15.41608460483099
SKYSAT-C8               
1 42990U 17068D   26170.34688538  .00008658  00000+0  24141-3 0  9998
2 42990  97.4531 307.0228 0001428  94.6460 265.4947 15.37011151482647
SKYSAT-C7               
1 42991U 17068E   26170.34057334  .00009071  00000+0  25300-3 0  9991
2 42991  97.4542 308.0060 0007200 100.6043 259.6012 15.36962434482707
SKYSAT-C6               
1 42992U 17068F   26170.62518389  .00007529  00000+0  22948-3 0  9996
2 42992  97.4577 308.2553 0004535 131.3931 228.7702 15.34245695482692
CARTOSAT-2F             
1 43111U 18004A   26170.64546706  .00005125  00000+0  24654-3 0  9993
2 43111  97.4779 230.2569 0000947 195.9787 164.1417 15.19232306467708
GAOFEN-1 02             
1 43259U 18031A   26170.60269458  .00000893  00000+0  13570-3 0  9990
2 43259  98.0521 233.1235 0003662  28.2866 331.8542 14.76460424443058
GAOFEN-1 03             
1 43260U 18031B   26170.64859444  .00000523  00000+0  82507-4 0  9993
2 43260  98.0517 233.0272 0003687  74.0903 286.0713 14.76471961443052
GAOFEN-1 04             
1 43262U 18031D   26170.62434693  .00001057  00000+0  15938-3 0  9994
2 43262  98.0523 233.1943 0002170  74.5641 285.5808 14.76439186443048
SENTINEL-3B             
1 43437U 18039A   26170.43386687  .00000072  00000+0  47687-4 0  9997
2 43437  98.6248 237.9340 0000720  92.8597 267.2666 14.26735265424441
GAOFEN-5 01             
1 43461U 18043A   26169.91136598  .00000252  00000+0  62008-4 0  9998
2 43461  98.4569 141.5337 0003028  80.5544 279.5998 14.60606556431943
GAOFEN-6                
1 43484U 18048A   26170.64618875 -.00000024  00000+0  39629-5 0  9995
2 43484  97.9705 233.3622 0011786 157.7969 202.3754 14.76599772433752
