OBJECT_NAME,OBJECT_ID,EPOCH,MEAN_MOTION,ECCENTRICITY,INCLINATION,RA_OF_ASC_NODE,ARG_OF_PERICENTER,MEAN_ANOMALY,EPHEMERIS_TYPE,CLASSIFICATION_TYPE,NORAD_CAT_ID,ELEMENT_SET_NO,REV_AT_EPOCH,BSTAR,MEAN_MOTION_DOT,MEAN_MOTION_DDOT
SKYSAT-C1,2016-040C,2026-06-19T13:28:03.213984,15.36334265,.00032707,96.9557,202.1525,53.7576,306.3971,0,U,41601,999,55823,.2102401E-3,.7375E-4,0
LAPAN-A3,2016-040E,2026-06-19T14:32:48.558912,15.33117376,.00105847,97.1490,166.6723,17.6604,342.5005,0,U,41603,999,55518,.85709126E-4,.2671E-4,0
GAOFEN-3,2016-049A,2026-06-19T13:57:28.962144,14.42215501,.00014327,98.4008,178.3317,98.8062,261.3290,0,U,41727,999,51899,-.3202502E-5,-.54E-6,0
SKYSAT-C4,2016-058B,2026-06-19T08:02:45.779712,15.48643082,.00015293,96.9169,192.0176,136.5061,223.6312,0,U,41771,999,54580,.27618292E-3,.14681E-3,0
SKYSAT-C5,2016-058C,2026-06-19T01:26:46.831200,15.34491747,.0000915,97.0465,210.6172,297.2547,62.8603,0,U,41772,999,54403,.17785849E-3,.5867E-4,0
SKYSAT-C2,2016-058D,2026-06-19T08:03:36.517248,15.42111954,.00045391,97.0165,192.3500,66.0921,294.0802,0,U,41773,999,54538,.24547204E-3,.10427E-3,0
SKYSAT-C3,2016-058E,2026-06-19T08:02:01.012416,15.52618328,.00014279,96.9000,201.0984,99.3828,260.7587,0,U,41774,999,54644,.32343855E-3,.19823E-3,0
ALSAT-1B,2016-059C,2026-06-19T14:51:12.748320,14.72276510,.0008262,97.7746,179.2778,211.1902,148.8816,0,U,41785,999,52093,.484275E-4,.259E-5,0
PATHFINDER 1,2016-059E,2026-06-19T07:38:11.524416,14.67665187,.00279698,97.8166,169.4983,196.6422,163.3869,0,U,41787,999,52002,.82952601E-4,.428E-5,0
SCATSAT 1,2016-059H,2026-06-19T10:40:53.545152,14.79529561,.00534657,98.1190,234.2345,240.0397,119.5500,0,U,41790,999,10192,.11738056E-3,.841E-5,0
GOKTURK 1A,2016-073A,2026-06-19T15:21:25.339968,14.62775922,.00014176,98.1246,65.2757,77.0275,283.1085,0,U,41875,999,50918,.47719694E-4,.197E-5,0
RESOURCESAT-2A,2016-074A,2026-06-19T14:30:33.319584,14.21619178,.00033036,98.7524,244.0896,79.9956,280.1594,0,U,41877,999,49464,.30997664E-3,.636E-5,0
CARTOSAT-2D,2017-008A,2026-06-19T14:17:26.932704,15.19220865,.00039464,97.4099,229.8574,223.7666,136.3257,0,U,41948,999,51794,.15798406E-3,.3259E-4,0
SENTINEL-2B,2017-013A,2026-06-19T14:02:33.839232,14.30818744,.00011906,98.5689,245.3262,86.8124,273.3195,0,U,42063,999,48498,.15696651E-3,.368E-5,0
CARTOSAT-2E,2017-036C,2026-06-19T14:43:02.758368,15.19271631,.00022076,97.4271,230.3763,309.0902,51.0136,0,U,42767,999,49851,.1810688E-3,.3751E-4,0
FORMOSAT-5,2017-049A,2026-06-19T12:51:14.269248,14.50899544,.00126481,98.2254,245.7932,77.8673,282.3938,0,U,42920,999,46701,.35800145E-4,.98E-6,0
SENTINEL-5P,2017-064A,2026-06-19T07:35:42.220896,14.19519265,.00009954,98.7925,112.4326,87.2037,272.9253,0,U,42969,999,44986,.37926876E-4,.36E-6,0
SKYSAT-C11,2017-068A,2026-06-19T08:52:10.206912,15.57990607,.00005403,97.4361,319.2953,92.5632,267.5686,0,U,42987,999,48358,.33662112E-3,.25137E-3,0
SKYSAT-C10,2017-068B,2026-06-19T09:05:33.823680,15.34669131,.00011009,97.4514,307.2471,99.7676,260.3691,0,U,42988,999,48269,.23071755E-3,.7671E-4,0
SKYSAT-C9,2017-068C,2026-06-19T09:08:39.260544,15.41608460,.00094563,97.4434,308.2050,126.1658,234.0465,0,U,42989,999,48309,.27511463E-3,.11508E-3,0
SKYSAT-C8,2017-068D,2026-06-19T08:19:30.896832,15.37011151,.00014283,97.4531,307.0228,94.6460,265.4947,0,U,42990,999,48264,.24141092E-3,.8658E-4,0
SKYSAT-C7,2017-068E,2026-06-19T08:10:25.536576,15.36962434,.00072001,97.4542,308.0060,100.6043,259.6012,0,U,42991,999,48270,.25300398E-3,.9071E-4,0
SKYSAT-C6,2017-068F,2026-06-19T15:00:15.888096,15.34245695,.00045352,97.4577,308.2553,131.3931,228.7702,0,U,42992,999,48269,.22948328E-3,.7529E-4,0
CARTOSAT-2F,2018-004A,2026-06-19T15:29:28.353984,15.19232306,.00009474,97.4779,230.2569,195.9787,164.1417,0,U,43111,999,46770,.24653682E-3,.5125E-4,0
GAOFEN-1 02,2018-031A,2026-06-19T14:27:52.811712,14.76460424,.0003662,98.0521,233.1235,28.2866,331.8542,0,U,43259,999,44305,.13569705E-3,.893E-5,0
GAOFEN-1 03,2018-031B,2026-06-19T15:33:58.559616,14.76471961,.0003687,98.0517,233.0272,74.0903,286.0713,0,U,43260,999,44305,.82506967E-4,.523E-5,0
GAOFEN-1 04,2018-031D,2026-06-19T14:59:03.574752,14.76439186,.00021707,98.0523,233.1943,74.5641,285.5808,0,U,43262,999,44304,.15937645E-3,.1057E-4,0
SENTINEL-3B,2018-039A,2026-06-19T10:24:46.097568,14.26735265,.00007208,98.6248,237.9340,92.8597,267.2666,0,U,43437,999,42444,.47687251E-4,.72E-6,0
GAOFEN-5 01,2018-043A,2026-06-18T21:52:22.020672,14.60606556,.0003028,98.4569,141.5337,80.5544,279.5998,0,U,43461,999,43194,.62008E-4,.252E-5,0
GAOFEN-6,2018-048A,2026-06-19T15:30:30.708000,14.76599772,.00117862,97.9705,233.3622,157.7969,202.3754,0,U,43484,999,43375,.396292E-5,-.24E-6,0
